NORAD_CAT_ID,OBJECT_NAME,OBJECT_TYPE,EPOCH,MEAN_MOTION,ECCENTRICITY,INCLINATION,RA_OF_ASC_NODE,ARG_OF_PERICENTER,MEAN_ANOMALY,BSTAR,MEAN_MOTION_DOT,MEAN_MOTION_DDOT,TLE_LINE0,TLE_LINE1,TLE_LINE2,SEMIMAJOR_AXIS,PERIOD,APOGEE,PERIGEE,DECAYED
53439.0,STARLINK-4519,PAYLOAD,2023-09-23 18:47:43,15.08846821,0.0001037,53.2161,174.7498,84.6999,275.4111,0.0011533,0.00018118,0.0,0 STARLINK-4519,1 53439U 22097BD  23266.78314757  .00018118  00000-0  11533-2 0  9999,2 53439  53.2161 174.7498 0001037  84.6999 275.4111 15.08846821 62754,6917.86,95.437,540.442,539.007,0.0
53439.0,STARLINK-4519,PAYLOAD,2023-09-24 02:44:39,15.0884423,0.0001053,53.2162,173.2633,83.7795,276.3317,0.00049844,7.655e-05,0.0,0 STARLINK-4519,1 53439U 22097BD  23267.11434706  .00007655  00000-0  49844-3 0  9995,2 53439  53.2162 173.2633 0001053  83.7795 276.3317 15.08844230 62808,6917.867,95.437,540.461,539.004,0.0
53439.0,STARLINK-4519,PAYLOAD,2023-09-24 21:49:17,15.08837677,0.0001178,53.2165,169.6951,92.7623,267.3504,0.00017037,2.424e-05,0.0,0 STARLINK-4519,1 53439U 22097BD  23267.90922976  .00002424  00000-0  17037-3 0  9991,2 53439  53.2165 169.6951 0001178  92.7623 267.3504 15.08837677 63414,6917.887,95.438,540.567,538.938,0.0
53439.0,STARLINK-4519,PAYLOAD,2023-09-25 02:35:26,15.08847955,0.0001193,53.2168,168.8015,84.9928,275.12,0.00040255,6.126e-05,0.0,0 STARLINK-4519,1 53439U 22097BD  23268.10794697  .00006126  00000-0  40255-3 0  9992,2 53439  53.2168 168.8015 0001193  84.9928 275.1200 15.08847955 62955,6917.856,95.437,540.546,538.896,0.0
53439.0,STARLINK-4519,PAYLOAD,2023-09-25 10:32:22,15.08853266,0.0001166,53.216,167.3147,94.9695,265.143,0.00051576,7.933e-05,0.0,0 STARLINK-4519,1 53439U 22097BD  23268.43914528  .00007933  00000-0  51576-3 0  9990,2 53439  53.2160 167.3147 0001166  94.9695 265.1430 15.08853266 63495,6917.84,95.437,540.511,538.898,0.0
53439.0,STARLINK-4519,PAYLOAD,2023-09-25 21:40:03,15.08859813,0.0001139,53.2158,165.2323,95.0481,265.0641,0.00048839,7.498e-05,0.0,0 STARLINK-4519,1 53439U 22097BD  23268.90282010  .00007498  00000-0  48839-3 0  9990,2 53439  53.2158 165.2323 0001139  95.0481 265.0641 15.08859813 63565,6917.82,95.436,540.473,538.897,0.0
53439.0,STARLINK-4519,PAYLOAD,2023-09-26 00:50:49,15.08868414,0.0001264,53.2163,164.6372,95.0243,265.0893,0.00076823,0.00011969,0.0,0 STARLINK-4519,1 53439U 22097BD  23269.03529682  .00011969  00000-0  76823-3 0  9996,2 53439  53.2163 164.6372 0001264  95.0243 265.0893 15.08868414 63097,6917.794,95.436,540.533,538.784,0.0
53439.0,STARLINK-4519,PAYLOAD,2023-09-26 21:30:51,15.08829562,0.0001427,53.2158,160.7738,100.1974,259.9179,2.3267e-06,-2.51e-06,0.0,0 STARLINK-4519,1 53439U 22097BD  23269.89642862 -.00000251  00000-0  23267-5 0  9995,2 53439  53.2158 160.7738 0001427 100.1974 259.9179 15.08829562 63713,6917.912,95.438,540.764,538.79,0.0
53439.0,STARLINK-4519,PAYLOAD,2023-09-27 02:17:00,15.08831709,0.0001412,53.2162,159.881,98.6683,261.4469,1.9586e-05,2.4e-07,0.0,0 STARLINK-4519,1 53439U 22097BD  23270.09515038  .00000024  00000-0  19586-4 0  9998,2 53439  53.2162 159.8810 0001412  98.6683 261.4469 15.08831709 63255,6917.906,95.438,540.748,538.794,0.0
53439.0,STARLINK-4519,PAYLOAD,2023-09-27 10:13:57,15.08825371,0.0001484,53.2164,158.3927,93.7734,266.3428,5.8132e-05,6.37e-06,0.0,0 STARLINK-4519,1 53439U 22097BD  23270.42635616  .00000637  00000-0  58132-4 0  9990,2 53439  53.2164 158.3927 0001484  93.7734 266.3428 15.08825371 63798,6917.925,95.438,540.817,538.763,0.0
53439.0,STARLINK-4519,PAYLOAD,2023-09-27 22:57:02,15.08832526,0.0001579,53.2172,156.0136,91.8229,268.2944,0.00021157,3.08e-05,0.0,0 STARLINK-4519,1 53439U 22097BD  23270.95627994  .00003080  00000-0  21157-3 0  9999,2 53439  53.2172 156.0136 0001579  91.8229 268.2944 15.08832526 63870,6917.903,95.438,540.861,538.676,0.0
53439.0,STARLINK-4519,PAYLOAD,2023-09-28 21:12:26,15.08849699,0.0001596,53.2167,151.8492,102.0878,258.0293,0.00049863,7.659e-05,0.0,0 STARLINK-4519,1 53439U 22097BD  23271.88363675  .00007659  00000-0  49863-3 0  9995,2 53439  53.2167 151.8492 0001596 102.0878 258.0293 15.08849699 64016,6917.851,95.437,540.82,538.612,0.0
53439.0,STARLINK-4519,PAYLOAD,2023-09-29 01:58:35,15.08854014,0.0001594,53.2168,150.9572,101.9305,258.1866,0.00051418,7.908e-05,0.0,0 STARLINK-4519,1 53439U 22097BD  23272.08235464  .00007908  00000-0  51418-3 0  9998,2 53439  53.2168 150.9572 0001594 101.9305 258.1866 15.08854014 63559,6917.838,95.437,540.805,538.6,0.0
53439.0,STARLINK-4519,PAYLOAD,2023-09-29 22:38:35,15.08857406,0.0001462,53.2166,147.0907,90.2165,269.8994,0.00027277,4.058e-05,0.0,0 STARLINK-4519,1 53439U 22097BD  23272.94346741  .00004058  00000-0  27277-3 0  9993,2 53439  53.2166 147.0907 0001462  90.2165 269.8994 15.08857406 63687,6917.827,95.436,540.704,538.681,0.0
53439.0,STARLINK-4519,PAYLOAD,2023-09-30 08:10:54,15.088461,0.0001549,53.2166,145.3068,87.642,272.475,1.7288e-05,-1.3e-07,0.0,0 STARLINK-4519,1 53439U 22097BD  23273.34090984 -.00000013  00000-0  17288-4 0  9993,2 53439  53.2166 145.3068 0001549  87.6420 272.4750 15.08846100 63742,6917.862,95.437,540.798,538.655,0.0
53439.0,STARLINK-4519,PAYLOAD,2023-09-30 22:29:23,15.08839287,0.0001327,53.2155,142.6357,96.724,263.3903,-9.7442e-05,-1.838e-05,0.0,0 STARLINK-4519,1 53439U 22097BD  23273.93707176 -.00001838  00000-0 -97442-4 0  9993,2 53439  53.2155 142.6357 0001327  96.7240 263.3903 15.08839287 63833,6917.883,95.438,540.666,538.83,0.0
53439.0,STARLINK-4519,PAYLOAD,2023-10-01 08:01:41,15.08845722,0.0001349,53.2156,140.8509,93.5382,266.5765,0.00026502,3.933e-05,0.0,0 STARLINK-4519,1 53439U 22097BD  23274.33451234  .00003933  00000-0  26502-3 0  9993,2 53439  53.2156 140.8509 0001349  93.5382 266.5765 15.08845722 64382,6917.863,95.437,540.661,538.795,0.0
53439.0,STARLINK-4519,PAYLOAD,2023-10-01 20:44:47,15.08850673,0.0001319,53.2149,138.4721,104.4434,255.6704,0.00070193,0.00010904,0.0,0 STARLINK-4519,1 53439U 22097BD  23274.86443383  .00010904  00000-0  70193-3 0  9998,2 53439  53.2149 138.4721 0001319 104.4434 255.6704 15.08850673 64462,6917.848,95.437,540.625,538.8,0.0
53439.0,STARLINK-4519,PAYLOAD,2023-10-02 01:30:56,15.08862197,0.0001312,53.2148,137.5793,102.5737,257.5402,0.00094485,0.0001479,0.0,0 STARLINK-4519,1 53439U 22097BD  23275.06315027  .00014790  00000-0  94485-3 0  9991,2 53439  53.2148 137.5793 0001312 102.5737 257.5402 15.08862197 64008,6917.813,95.436,540.585,538.77,0.0
53439.0,STARLINK-4519,PAYLOAD,2023-10-02 07:52:28,15.08856244,0.0001069,53.2148,136.3869,84.3438,275.7676,0.00067002,0.00010396,0.0,0 STARLINK-4519,1 53439U 22097BD  23275.32810987  .00010396  00000-0  67002-3 0  9998,2 53439  53.2148 136.3869 0001069  84.3438 275.7676 15.08856244 64048,6917.831,95.437,540.435,538.956,0.0
53439.0,STARLINK-4519,PAYLOAD,2023-10-02 20:35:34,15.08842415,0.0001369,53.2145,134.0111,91.9312,268.1837,0.00021883,3.197e-05,0.0,0 STARLINK-4519,1 53439U 22097BD  23275.85803343  .00003197  00000-0  21883-3 0  9992,2 53439  53.2145 134.0111 0001369  91.9312 268.1837 15.08842415 64127,6917.873,95.437,540.685,538.791,0.0
53439.0,STARLINK-4519,PAYLOAD,2023-10-03 07:43:16,15.08841134,0.0001309,53.2143,131.9296,94.0639,266.0503,0.00016393,2.322e-05,0.0,0 STARLINK-4519,1 53439U 22097BD  23276.32171428  .00002322  00000-0  16393-3 0  9996,2 53439  53.2143 131.9296 0001309  94.0639 266.0503 15.08841134 64680,6917.877,95.437,540.647,538.836,0.0
53439.0,STARLINK-4519,PAYLOAD,2023-10-03 20:26:21,15.08840267,0.0001296,53.2148,129.549,97.7946,262.3193,0.00015766,2.222e-05,0.0,0 STARLINK-4519,1 53439U 22097BD  23276.85163599  .00002222  00000-0  15766-3 0  9996,2 53439  53.2148 129.5490 0001296  97.7946 262.3193 15.08840267 64275,6917.88,95.438,540.641,538.848,0.0
53439.0,STARLINK-4519,PAYLOAD,2023-10-03 22:01:44,15.0884317,0.0001308,53.2149,129.2516,97.5309,262.5832,0.00023136,3.396e-05,0.0,0 STARLINK-4519,1 53439U 22097BD  23276.91787526  .00003396  00000-0  23136-3 0  9998,2 53439  53.2149 129.2516 0001308  97.5309 262.5832 15.08843170 64770,6917.871,95.437,540.641,538.831,0.0
53439.0,STARLINK-4519,PAYLOAD,2023-10-04 07:34:03,15.0884015,0.0001281,53.2154,127.4655,98.464,261.6498,0.00021979,3.212e-05,0.0,0 STARLINK-4519,1 53439U 22097BD  23277.31531698  .00003212  00000-0  21979-3 0  9990,2 53439  53.2154 127.4655 0001281  98.4640 261.6498 15.08840150 64838,6917.88,95.438,540.631,538.859,0.0
53439.0,STARLINK-4519,PAYLOAD,2023-10-04 20:17:08,15.08851156,0.0001297,53.2154,125.0868,96.9182,263.1958,0.00039606,6.023e-05,0.0,0 STARLINK-4519,1 53439U 22097BD  23277.84523364  .00006023  00000-0  39606-3 0  9998,2 53439  53.2154 125.0868 0001297  96.9182 263.1958 15.08851156 64914,6917.846,95.437,540.609,538.814,0.0
53439.0,STARLINK-4519,PAYLOAD,2023-10-04 23:27:54,15.08854158,0.0001337,53.2155,124.4919,99.3267,260.7877,0.000471,7.219e-05,0.0,0 STARLINK-4519,1 53439U 22097BD  23277.97771247  .00007219  00000-0  47100-3 0  9993,2 53439  53.2155 124.4919 0001337  99.3267 260.7877 15.08854158 64447,6917.837,95.437,540.627,538.777,0.0
53439.0,STARLINK-4519,PAYLOAD,2023-10-05 07:24:50,15.08844132,0.0001404,53.2157,123.0055,105.1639,254.9508,0.00021184,3.085e-05,0.0,0 STARLINK-4519,1 53439U 22097BD  23278.30891568  .00003085  00000-0  21184-3 0  9991,2 53439  53.2157 123.0055 0001404 105.1639 254.9508 15.08844132 64491,6917.868,95.437,540.704,538.761,0.0
53439.0,STARLINK-4519,PAYLOAD,2023-10-05 13:46:22,15.08842094,0.0001742,53.2154,121.8163,98.796,261.3229,0.000181,2.594e-05,0.0,0 STARLINK-4519,1 53439U 22097BD  23278.57387630  .00002594  00000-0  18100-3 0  9998,2 53439  53.2154 121.8163 0001742  98.7960 261.3229 15.08842094 65020,6917.874,95.437,540.944,538.534,0.0
53439.0,STARLINK-4519,PAYLOAD,2023-10-05 20:07:55,15.08842139,0.0001602,53.2157,120.6266,110.0169,250.0996,0.00018294,2.625e-05,0.0,0 STARLINK-4519,1 53439U 22097BD  23278.83883670  .00002625  00000-0  18294-3 0  9991,2 53439  53.2157 120.6266 0001602 110.0169 250.0996 15.08842139 65068,6917.874,95.437,540.847,538.631,0.0
